STARLINK-1012
1 44718U 19074F   26090.68464471  .00075053  00000+0  23655-2 0  9994
2 44718  53.1606  76.5007 0003095  86.7389 273.3967 15.32243399352233
STARLINK-1191
1 45222U 20012AW  26090.73325425  .00079881  00000+0  25140-2 0  9994
2 45222  53.1587 256.3012 0001251 313.4770  46.6128 15.32261589338899
